{"type": "FeatureCollection", "features": [ {"type": "Feature", "properties": {"norad_id": 67001, "name": "2025-292J", "group": "last-30-days", "lat": -4.737263536923534, "lon": -106.7547064104943, "alt_km": 547.8043362667113, "timestamp": "2025-12-27T11:23:18.581449+00:00", "meta": {"OBJECT_NAME": "2025-292J", "OBJECT_ID": "2025-292J", "EPOCH": "2025-12-27T04:11:03.749280", "MEAN_MOTION": 15.04459542, "ECCENTRICITY": 0.0015218, "INCLINATION": 97.6524, "RA_OF_ASC_NODE": 73.5865, "ARG_OF_PERICENTER": 217.109, "MEAN_ANOMALY": 142.9085, "EPHEMERIS_TYPE": 0, "CLASSIFICATION_TYPE": "U", "NORAD_CAT_ID": 67001, "ELEMENT_SET_NO": 999, "REV_AT_EPOCH": 256, "BSTAR": 0.0005077, "MEAN_MOTION_DOT": 7.059e-05, "MEAN_MOTION_DDOT": 0}, "tle": {"line1": "1 67001U 25292J   25361.17434895  .00007059  00000+0  50770-3 0  9994", "line2": "2 67001  97.6524  73.5865 0015218 217.1090 142.9085 15.04459542  2561"}}, "geometry": {"type": "Point", "coordinates": [-106.7547064104943, -4.737263536923534]}}, {"type": "Feature", "properties": {"norad_id": 67002, "name": "ZK-1A R/B", "group": "last-30-days", "lat": -2.9483831453124862, "lon": -104.92082523665927, "alt_km": 477.30970425313626, "timestamp": "2025-12-27T11:23:18.581459+00:00", "meta": {"OBJECT_NAME": "ZK-1A R/B", "OBJECT_ID": "2025-292K", "EPOCH": "2025-12-27T04:25:51.055680", "MEAN_MOTION": 15.59229474, "ECCENTRICITY": 0.0203542, "INCLINATION": 97.7194, "RA_OF_ASC_NODE": 75.1645, "ARG_OF_PERICENTER": 312.5496, "MEAN_ANOMALY": 45.8729, "EPHEMERIS_TYPE": 0, "CLASSIFICATION_TYPE": "U", "NORAD_CAT_ID": 67002, "ELEMENT_SET_NO": 999, "REV_AT_EPOCH": 264, "BSTAR": 0.00072117, "MEAN_MOTION_DOT": 0.0015794, "MEAN_MOTION_DDOT": 8.9456e-06}, "tle": {"line1": "1 67002U 25292K   25361.18461870  .00157940  89456-5  72117-3 0  9991", "line2": "2 67002  97.7194  75.1645 0203542 312.5496  45.8729 15.59229474  2643"}}, "geometry": {"type": "Point", "coordinates": [-104.92082523665927, -2.9483831453124862]}}, {"type": "Feature", "properties": {"norad_id": 67003, "name": "STARLINK-35660", "group": "last-30-days", "lat": -54.78222785989707, "lon": -109.76178217185003, "alt_km": 364.2108456298083, "timestamp": "2025-12-27T11:23:18.581469+00:00", "meta": {"OBJECT_NAME": "STARLINK-35660", "OBJECT_ID": "2025-293A", "EPOCH": "2025-12-27T04:00:01.998720", "MEAN_MOTION": 15.707793, "ECCENTRICITY": 0.0003775, "INCLINATION": 69.998, "RA_OF_ASC_NODE": 282.1715, "ARG_OF_PERICENTER": 269.2183, "MEAN_ANOMALY": 90.8392, "EPHEMERIS_TYPE": 0, "CLASSIFICATION_TYPE": "U", "NORAD_CAT_ID": 67003, "ELEMENT_SET_NO": 999, "REV_AT_EPOCH": 248, "BSTAR": -0.01455, "MEAN_MOTION_DOT": -0.0161254, "MEAN_MOTION_DDOT": 0}, "tle": {"line1": "1 67003U 25293A   25361.16668980 -.01612540  00000+0 -14550-1 0  9994", "line2": "2 67003  69.9980 282.1715 0003775 269.2183  90.8392 15.70779300  2482"}}, "geometry": {"type": "Point", "coordinates": [-109.76178217185003, -54.78222785989707]}}, {"type": "Feature", "properties": {"norad_id": 67004, "name": "STARLINK-35913", "group": "last-30-days", "lat": -53.08271261268391, "lon": -107.69920783026076, "alt_km": 364.2984137505391, "timestamp": "2025-12-27T11:23:18.581480+00:00", "meta": {"OBJECT_NAME": "STARLINK-35913", "OBJECT_ID": "2025-293B", "EPOCH": "2025-12-27T04:00:01.998720", "MEAN_MOTION": 15.70776077, "ECCENTRICITY": 0.0003657, "INCLINATION": 69.9981, "RA_OF_ASC_NODE": 282.1696, "ARG_OF_PERICENTER": 269.8282, "MEAN_ANOMALY": 92.3289, "EPHEMERIS_TYPE": 0, "CLASSIFICATION_TYPE": "U", "NORAD_CAT_ID": 67004, "ELEMENT_SET_NO": 999, "REV_AT_EPOCH": 248, "BSTAR": -0.014625, "MEAN_MOTION_DOT": -0.01619657, "MEAN_MOTION_DDOT": 0}, "tle": {"line1": "1 67004U 25293B   25361.16668980 -.01619657  00000+0 -14625-1 0  9994", "line2": "2 67004  69.9981 282.1696 0003657 269.8282  92.3289 15.70776077  2487"}}, "geometry": {"type": "Point", "coordinates": [-107.69920783026076, -53.08271261268391]}}, {"type": "Feature", "properties": {"norad_id": 67005, "name": "STARLINK-36148", "group": "last-30-days", "lat": -51.29580384641989, "lon": -105.73901320533518, "alt_km": 364.2299808878397, "timestamp": "2025-12-27T11:23:18.581492+00:00", "meta": {"OBJECT_NAME": "STARLINK-36148", "OBJECT_ID": "2025-293C", "EPOCH": "2025-12-27T04:00:01.998720", "MEAN_MOTION": 15.70762923, "ECCENTRICITY": 0.0003785, "INCLINATION": 69.9981, "RA_OF_ASC_NODE": 282.1668, "ARG_OF_PERICENTER": 271.4179, "MEAN_ANOMALY": 92.9112, "EPHEMERIS_TYPE": 0, "CLASSIFICATION_TYPE": "U", "NORAD_CAT_ID": 67005, "ELEMENT_SET_NO": 999, "REV_AT_EPOCH": 248, "BSTAR": -0.014642, "MEAN_MOTION_DOT": -0.01620616, "MEAN_MOTION_DDOT": 0}, "tle": {"line1": "1 67005U 25293C   25361.16668980 -.01620616  00000+0 -14642-1 0  9991", "line2": "2 67005  69.9981 282.1668 0003785 271.4179  92.9112 15.70762923  2489"}}, "geometry": {"type": "Point", "coordinates": [-105.73901320533518, -51.29580384641989]}}, {"type": "Feature", "properties": {"norad_id": 67006, "name": "STARLINK-36156", "group": "last-30-days", "lat": -47.30639832609312, "lon": -101.96085524211288, "alt_km": 364.35037736387403, "timestamp": "2025-12-27T11:23:18.581504+00:00", "meta": {"OBJECT_NAME": "STARLINK-36156", "OBJECT_ID": "2025-293D", "EPOCH": "2025-12-27T04:00:01.998720", "MEAN_MOTION": 15.70710749, "ECCENTRICITY": 0.0003787, "INCLINATION": 69.9982, "RA_OF_ASC_NODE": 282.1608, "ARG_OF_PERICENTER": 272.152, "MEAN_ANOMALY": 96.9286, "EPHEMERIS_TYPE": 0, "CLASSIFICATION_TYPE": "U", "NORAD_CAT_ID": 67006, "ELEMENT_SET_NO": 999, "REV_AT_EPOCH": 248, "BSTAR": -0.014637, "MEAN_MOTION_DOT": -0.01617004, "MEAN_MOTION_DDOT": 0}, "tle": {"line1": "1 67006U 25293D   25361.16668980 -.01617004  00000+0 -14637-1 0  9993", "line2": "2 67006  69.9982 282.1608 0003787 272.1520  96.9286 15.70710749  2480"}}, "geometry": {"type": "Point", "coordinates": [-101.96085524211288, -47.30639832609312]}}, {"type": "Feature", "properties": {"norad_id": 67007, "name": "STARLINK-36123", "group": "last-30-days", "lat": -49.21238537171006, "lon": -103.67590145524234, "alt_km": 364.37209615021857, "timestamp": "2025-12-27T11:23:18.581513+00:00", "meta": {"OBJECT_NAME": "STARLINK-36123", "OBJECT_ID": "2025-293E", "EPOCH": "2025-12-27T04:00:01.998720", "MEAN_MOTION": 15.70734994, "ECCENTRICITY": 0.0003741, "INCLINATION": 69.9982, "RA_OF_ASC_NODE": 282.1628, "ARG_OF_PERICENTER": 270.6683, "MEAN_ANOMALY": 96.1645, "EPHEMERIS_TYPE": 0, "CLASSIFICATION_TYPE": "U", "NORAD_CAT_ID": 67007, "ELEMENT_SET_NO": 999, "REV_AT_EPOCH": 248, "BSTAR": -0.014732, "MEAN_MOTION_DOT": -0.01627709, "MEAN_MOTION_DDOT": 0}, "tle": {"line1": "1 67007U 25293E   25361.16668980 -.01627709  00000+0 -14732-1 0  9993", "line2": "2 67007  69.9982 282.1628 0003741 270.6683  96.1645 15.70734994  2485"}}, "geometry": {"type": "Point", "coordinates": [-103.67590145524234, -49.21238537171006]}}, {"type": "Feature", "properties": {"norad_id": 67008, "name": "STARLINK-36163", "group": "last-30-days", "lat": -45.06109887654313, "lon": -100.11841677226742, "alt_km": 364.5052798668621, "timestamp": "2025-12-27T11:23:18.581523+00:00", "meta": {"OBJECT_NAME": "STARLINK-36163", "OBJECT_ID": "2025-293F", "EPOCH": "2025-12-27T04:00:01.998720", "MEAN_MOTION": 15.70634119, "ECCENTRICITY": 0.0003868, "INCLINATION": 69.9983, "RA_OF_ASC_NODE": 282.1573, "ARG_OF_PERICENTER": 269.4473, "MEAN_ANOMALY": 102.2839, "EPHEMERIS_TYPE": 0, "CLASSIFICATION_TYPE": "U", "NORAD_CAT_ID": 67008, "ELEMENT_SET_NO": 999, "REV_AT_EPOCH": 248, "BSTAR": -0.014242, "MEAN_MOTION_DOT": -0.01573574, "MEAN_MOTION_DDOT": 0}, "tle": {"line1": "1 67008U 25293F   25361.16668980 -.01573574  00000+0 -14242-1 0  9990", "line2": "2 67008  69.9983 282.1573 0003868 269.4473 102.2839 15.70634119  2481"}}, "geometry": {"type": "Point", "coordinates": [-100.11841677226742, -45.06109887654313]}}, {"type": "Feature", "properties": {"norad_id": 67009, "name": "STARLINK-36118", "group": "last-30-days", "lat": -43.0381646731422, "lon": -98.59614887631393, "alt_km": 364.35587343892075, "timestamp": "2025-12-27T11:23:18.581533+00:00", "meta": {"OBJECT_NAME": "STARLINK-36118", "OBJECT_ID": "2025-293G", "EPOCH": "2025-12-27T04:00:01.998720", "MEAN_MOTION": 15.70644285, "ECCENTRICITY": 0.0003943, "INCLINATION": 69.9979, "RA_OF_ASC_NODE": 282.155, "ARG_OF_PERICENTER": 273.2091, "MEAN_ANOMALY": 100.8233, "EPHEMERIS_TYPE": 0, "CLASSIFICATION_TYPE": "U", "NORAD_CAT_ID": 67009, "ELEMENT_SET_NO": 999, "REV_AT_EPOCH": 242, "BSTAR": -0.01443, "MEAN_MOTION_DOT": -0.01592776, "MEAN_MOTION_DDOT": 0}, "tle": {"line1": "1 67009U 25293G   25361.16668980 -.01592776  00000+0 -14430-1 0  9995", "line2": "2 67009  69.9979 282.1550 0003943 273.2091 100.8233 15.70644285  2426"}}, "geometry": {"type": "Point", "coordinates": [-98.59614887631393, -43.0381646731422]}}, {"type": "Feature", "properties": {"norad_id": 67010, "name": "STARLINK-36189", "group": "last-30-days", "lat": -39.15165789572078, "lon": -95.96826969461506, "alt_km": 364.7290707128868, "timestamp": "2025-12-27T11:23:18.581543+00:00", "meta": {"OBJECT_NAME": "STARLINK-36189", "OBJECT_ID": "2025-293H", "EPOCH": "2025-12-27T04:00:01.998720", "MEAN_MOTION": 15.70617857, "ECCENTRICITY": 0.0003538, "INCLINATION": 69.9981, "RA_OF_ASC_NODE": 282.1494, "ARG_OF_PERICENTER": 270.9235, "MEAN_ANOMALY": 107.5192, "EPHEMERIS_TYPE": 0, "CLASSIFICATION_TYPE": "U", "NORAD_CAT_ID": 67010, "ELEMENT_SET_NO": 999, "REV_AT_EPOCH": 248, "BSTAR": -0.01473, "MEAN_MOTION_DOT": -0.01620242, "MEAN_MOTION_DDOT": 0}, "tle": {"line1": "1 67010U 25293H   25361.16668980 -.01620242  00000+0 -14730-1 0  9990", "line2": "2 67010  69.9981 282.1494 0003538 270.9235 107.5192 15.70617857  2481"}}, "geometry": {"type": "Point", "coordinates": [-95.96826969461506, -39.15165789572078]}}]}